ORBCOMM FM37 [-]        
1 33064U 08031E   24085.39864147  .00005395  00000+0  80204-3 0  9997
2 33064  48.4401 311.1514 0006230 253.9092 276.3345 14.76113560847986
ORBCOMM FM40 [-]        
1 33065U 08031F   24085.36778649  .00006949  00000+0  99445-3 0  9999
2 33065  48.4416 301.1063 0007536 261.1370 269.7751 14.77381937848132
ORBCOMM FM109 [+]       
1 40086U 14040A   24085.47773064  .00003695  00000+0  86122-3 0  9998
2 40086  47.0038 332.7127 0001576  43.3185 316.7824 14.56422420515732
ORBCOMM FM107 [+]       
1 40087U 14040B   24085.37495484  .00003140  00000+0  73743-3 0  9995
2 40087  47.0055 334.1570 0001344 356.4150   3.6725 14.56423497515718
ORBCOMM FM106 [-]       
1 40088U 14040C   24085.55748808  .00005632  00000+0  10293-2 0  9995
2 40088  47.0596 189.8168 0017486 148.5268 211.6671 14.66785939517762
ORBCOMM FM111 [-]       
1 40089U 14040D   24085.30075020  .00009072  00000+0  11616-2 0  9990
2 40089  47.0026  97.4866 0033277 212.1698 147.7167 14.81373365523568
ORBCOMM FM104 [-]       
1 40090U 14040E   24084.88747589  .00004224  00000+0  10079-2 0  9996
2 40090  47.0070   4.8513 0017613 312.5851  47.3547 14.54984835515256
